{"type": "FeatureCollection", "features": [ {"type": "Feature", "properties": {"norad_id": 34014, "name": "COSMOS 2251 DEB", "group": "cosmos-2251-debris", "lat": 42.39607329000091, "lon": 71.80005664956322, "alt_km": 647.2242313711613, "timestamp": "2025-12-19T18:58:41.979429+00:00", "meta": {"OBJECT_NAME": "COSMOS 2251 DEB", "OBJECT_ID": "1993-036GZ", "EPOCH": "2025-12-19T06:03:12.545856", "MEAN_MOTION": 14.73212419, "ECCENTRICITY": 0.00373388, "INCLINATION": 74.0178, "RA_OF_ASC_NODE": 268.0192, "ARG_OF_PERICENTER": 45.8797, "MEAN_ANOMALY": 114.1023, "EPHEMERIS_TYPE": 0, "CLASSIFICATION_TYPE": "U", "NORAD_CAT_ID": 34014, "ELEMENT_SET_NO": 999, "REV_AT_EPOCH": 89399, "BSTAR": 0.00065390151, "MEAN_MOTION_DOT": 4.237e-05, "MEAN_MOTION_DDOT": 0}, "tle": {"line1": "1 34014U 93036GZ  25353.25222854  .00004237  00000+0  65390-3 0  9992", "line2": "2 34014  74.0178 268.0192 0037338  45.8797 114.1023 14.73212419893997"}}, "geometry": {"type": "Point", "coordinates": [71.80005664956322, 42.39607329000091]}}, {"type": "Feature", "properties": {"norad_id": 34015, "name": "COSMOS 2251 DEB", "group": "cosmos-2251-debris", "lat": -68.4700757467731, "lon": 99.38382414069522, "alt_km": 687.96656959144, "timestamp": "2025-12-19T18:58:41.979440+00:00", "meta": {"OBJECT_NAME": "COSMOS 2251 DEB", "OBJECT_ID": "1993-036HA", "EPOCH": "2025-12-18T20:49:36.533280", "MEAN_MOTION": 14.60329926, "ECCENTRICITY": 0.00209707, "INCLINATION": 74.023, "RA_OF_ASC_NODE": 147.7163, "ARG_OF_PERICENTER": 244.5586, "MEAN_ANOMALY": 229.6249, "EPHEMERIS_TYPE": 0, "CLASSIFICATION_TYPE": "U", "NORAD_CAT_ID": 34015, "ELEMENT_SET_NO": 999, "REV_AT_EPOCH": 88620, "BSTAR": 0.0011695602, "MEAN_MOTION_DOT": 5.645e-05, "MEAN_MOTION_DDOT": 0}, "tle": {"line1": "1 34015U 93036HA  25352.86778395  .00005645  00000+0  11696-2 0  9998", "line2": "2 34015  74.0230 147.7163 0020970 244.5586 229.6249 14.60329926886202"}}, "geometry": {"type": "Point", "coordinates": [99.38382414069522, -68.4700757467731]}}, {"type": "Feature", "properties": {"norad_id": 34018, "name": "COSMOS 2251 DEB", "group": "cosmos-2251-debris", "lat": -38.883905890029595, "lon": -86.36398462995467, "alt_km": 1014.7145706250894, "timestamp": "2025-12-19T18:58:41.979450+00:00", "meta": {"OBJECT_NAME": "COSMOS 2251 DEB", "OBJECT_ID": "1993-036HD", "EPOCH": "2025-12-18T12:28:21.820800", "MEAN_MOTION": 13.81078586, "ECCENTRICITY": 0.02634097, "INCLINATION": 73.8781, "RA_OF_ASC_NODE": 82.3012, "ARG_OF_PERICENTER": 117.0842, "MEAN_ANOMALY": 263.5035, "EPHEMERIS_TYPE": 0, "CLASSIFICATION_TYPE": "U", "NORAD_CAT_ID": 34018, "ELEMENT_SET_NO": 999, "REV_AT_EPOCH": 84737, "BSTAR": 0.00030216785, "MEAN_MOTION_DOT": 3.94e-06, "MEAN_MOTION_DDOT": 0}, "tle": {"line1": "1 34018U 93036HD  25352.51969700  .00000394  00000+0  30217-3 0  9992", "line2": "2 34018  73.8781  82.3012 0263409 117.0842 263.5035 13.81078586847375"}}, "geometry": {"type": "Point", "coordinates": [-86.36398462995467, -38.883905890029595]}}, {"type": "Feature", "properties": {"norad_id": 34019, "name": "COSMOS 2251 DEB", "group": "cosmos-2251-debris", "lat": -59.94746952821543, "lon": -112.39561434886058, "alt_km": 745.1257271181257, "timestamp": "2025-12-19T18:58:41.979460+00:00", "meta": {"OBJECT_NAME": "COSMOS 2251 DEB", "OBJECT_ID": "1993-036HE", "EPOCH": "2025-12-19T04:42:53.497728", "MEAN_MOTION": 14.33965125, "ECCENTRICITY": 0.00624878, "INCLINATION": 73.9535, "RA_OF_ASC_NODE": 38.8657, "ARG_OF_PERICENTER": 219.1323, "MEAN_ANOMALY": 197.9727, "EPHEMERIS_TYPE": 0, "CLASSIFICATION_TYPE": "U", "NORAD_CAT_ID": 34019, "ELEMENT_SET_NO": 999, "REV_AT_EPOCH": 87613, "BSTAR": 0.00057992599, "MEAN_MOTION_DOT": 1.627e-05, "MEAN_MOTION_DDOT": 0}, "tle": {"line1": "1 34019U 93036HE  25353.19645252  .00001627  00000+0  57993-3 0  9991", "line2": "2 34019  73.9535  38.8657 0062487 219.1323 197.9727 14.33965125876132"}}, "geometry": {"type": "Point", "coordinates": [-112.39561434886058, -59.94746952821543]}}, {"type": "Feature", "properties": {"norad_id": 34021, "name": "COSMOS 2251 DEB", "group": "cosmos-2251-debris", "lat": 27.765709664693624, "lon": 125.25808673479595, "alt_km": 733.6337758519703, "timestamp": "2025-12-19T18:58:41.979470+00:00", "meta": {"OBJECT_NAME": "COSMOS 2251 DEB", "OBJECT_ID": "1993-036HG", "EPOCH": "2025-12-18T09:59:12.329952", "MEAN_MOTION": 14.49967996, "ECCENTRICITY": 0.00209503, "INCLINATION": 74.0359, "RA_OF_ASC_NODE": 119.1704, "ARG_OF_PERICENTER": 262.6354, "MEAN_ANOMALY": 153.6647, "EPHEMERIS_TYPE": 0, "CLASSIFICATION_TYPE": "U", "NORAD_CAT_ID": 34021, "ELEMENT_SET_NO": 999, "REV_AT_EPOCH": 88712, "BSTAR": 0.00037948616, "MEAN_MOTION_DOT": 1.445e-05, "MEAN_MOTION_DDOT": 0}, "tle": {"line1": "1 34021U 93036HG  25352.41611493  .00001445  00000+0  37949-3 0  9995", "line2": "2 34021  74.0359 119.1704 0020950 262.6354 153.6647 14.49967996887129"}}, "geometry": {"type": "Point", "coordinates": [125.25808673479595, 27.765709664693624]}}, {"type": "Feature", "properties": {"norad_id": 34022, "name": "COSMOS 2251 DEB", "group": "cosmos-2251-debris", "lat": -67.41011652941081, "lon": -145.6049607592685, "alt_km": 755.4213151389022, "timestamp": "2025-12-19T18:58:41.979480+00:00", "meta": {"OBJECT_NAME": "COSMOS 2251 DEB", "OBJECT_ID": "1993-036HH", "EPOCH": "2025-12-19T04:53:09.074400", "MEAN_MOTION": 14.38972606, "ECCENTRICITY": 0.00229295, "INCLINATION": 74.0541, "RA_OF_ASC_NODE": 258.885, "ARG_OF_PERICENTER": 322.7883, "MEAN_ANOMALY": 163.0281, "EPHEMERIS_TYPE": 0, "CLASSIFICATION_TYPE": "U", "NORAD_CAT_ID": 34022, "ELEMENT_SET_NO": 999, "REV_AT_EPOCH": 88288, "BSTAR": 0.00016374135, "MEAN_MOTION_DOT": 4.8e-06, "MEAN_MOTION_DDOT": 0}, "tle": {"line1": "1 34022U 93036HH  25353.20357725  .00000480  00000+0  16374-3 0  9996", "line2": "2 34022  74.0541 258.8850 0022929 322.7883 163.0281 14.38972606882888"}}, "geometry": {"type": "Point", "coordinates": [-145.6049607592685, -67.41011652941081]}}, {"type": "Feature", "properties": {"norad_id": 34023, "name": "COSMOS 2251 DEB", "group": "cosmos-2251-debris", "lat": -61.63081112278582, "lon": 90.7338051011675, "alt_km": 762.6942356271456, "timestamp": "2025-12-19T18:58:41.979490+00:00", "meta": {"OBJECT_NAME": "COSMOS 2251 DEB", "OBJECT_ID": "1993-036HJ", "EPOCH": "2025-12-19T03:33:52.653312", "MEAN_MOTION": 14.40574039, "ECCENTRICITY": 0.00187173, "INCLINATION": 74.0245, "RA_OF_ASC_NODE": 239.8831, "ARG_OF_PERICENTER": 334.555, "MEAN_ANOMALY": 182.5124, "EPHEMERIS_TYPE": 0, "CLASSIFICATION_TYPE": "U", "NORAD_CAT_ID": 34023, "ELEMENT_SET_NO": 999, "REV_AT_EPOCH": 88306, "BSTAR": 0.00023008021, "MEAN_MOTION_DOT": 7.08e-06, "MEAN_MOTION_DDOT": 0}, "tle": {"line1": "1 34023U 93036HJ  25353.14852608  .00000708  00000+0  23008-3 0  9995", "line2": "2 34023  74.0245 239.8831 0018717 334.5550 182.5124 14.40574039883064"}}, "geometry": {"type": "Point", "coordinates": [90.7338051011675, -61.63081112278582]}}, {"type": "Feature", "properties": {"norad_id": 34024, "name": "COSMOS 2251 DEB", "group": "cosmos-2251-debris", "lat": 51.94661006647149, "lon": 101.63648747334196, "alt_km": 778.8773666047327, "timestamp": "2025-12-19T18:58:41.979500+00:00", "meta": {"OBJECT_NAME": "COSMOS 2251 DEB", "OBJECT_ID": "1993-036HK", "EPOCH": "2025-12-19T05:33:09.550656", "MEAN_MOTION": 14.35403048, "ECCENTRICITY": 0.00213451, "INCLINATION": 74.0468, "RA_OF_ASC_NODE": 304.0948, "ARG_OF_PERICENTER": 353.4123, "MEAN_ANOMALY": 121.8346, "EPHEMERIS_TYPE": 0, "CLASSIFICATION_TYPE": "U", "NORAD_CAT_ID": 34024, "ELEMENT_SET_NO": 999, "REV_AT_EPOCH": 88117, "BSTAR": 0.00013334124, "MEAN_MOTION_DOT": 3.58e-06, "MEAN_MOTION_DDOT": 0}, "tle": {"line1": "1 34024U 93036HK  25353.23136054  .00000358  00000+0  13334-3 0  9998", "line2": "2 34024  74.0468 304.0948 0021345 353.4123 121.8346 14.35403048881170"}}, "geometry": {"type": "Point", "coordinates": [101.63648747334196, 51.94661006647149]}}, {"type": "Feature", "properties": {"norad_id": 34026, "name": "COSMOS 2251 DEB", "group": "cosmos-2251-debris", "lat": 31.277846062338728, "lon": -24.24468590939869, "alt_km": 1259.1769660621694, "timestamp": "2025-12-19T18:58:41.979510+00:00", "meta": {"OBJECT_NAME": "COSMOS 2251 DEB", "OBJECT_ID": "1993-036HM", "EPOCH": "2025-12-17T16:40:17.033376", "MEAN_MOTION": 13.65315727, "ECCENTRICITY": 0.035016, "INCLINATION": 73.7668, "RA_OF_ASC_NODE": 329.0456, "ARG_OF_PERICENTER": 198.3141, "MEAN_ANOMALY": 336.8728, "EPHEMERIS_TYPE": 0, "CLASSIFICATION_TYPE": "U", "NORAD_CAT_ID": 34026, "ELEMENT_SET_NO": 999, "REV_AT_EPOCH": 83599, "BSTAR": 0.00043861076, "MEAN_MOTION_DOT": 5.19e-06, "MEAN_MOTION_DDOT": 0}, "tle": {"line1": "1 34026U 93036HM  25351.69464159  .00000519  00000+0  43861-3 0  9995", "line2": "2 34026  73.7668 329.0456 0350160 198.3141 336.8728 13.65315727835996"}}, "geometry": {"type": "Point", "coordinates": [-24.24468590939869, 31.277846062338728]}}, {"type": "Feature", "properties": {"norad_id": 34028, "name": "COSMOS 2251 DEB", "group": "cosmos-2251-debris", "lat": -8.515359843610849, "lon": -26.040586605381787, "alt_km": 1386.0520034286646, "timestamp": "2025-12-19T18:58:41.979521+00:00", "meta": {"OBJECT_NAME": "COSMOS 2251 DEB", "OBJECT_ID": "1993-036HP", "EPOCH": "2025-12-19T01:10:40.777248", "MEAN_MOTION": 13.20627759, "ECCENTRICITY": 0.05435532, "INCLINATION": 73.8834, "RA_OF_ASC_NODE": 337.5771, "ARG_OF_PERICENTER": 114.3383, "MEAN_ANOMALY": 317.427, "EPHEMERIS_TYPE": 0, "CLASSIFICATION_TYPE": "U", "NORAD_CAT_ID": 34028, "ELEMENT_SET_NO": 999, "REV_AT_EPOCH": 81091, "BSTAR": 0.00048571623, "MEAN_MOTION_DOT": 4.12e-06, "MEAN_MOTION_DDOT": 0}, "tle": {"line1": "1 34028U 93036HP  25353.04908307  .00000412  00000+0  48572-3 0  9992", "line2": "2 34028  73.8834 337.5771 0543553 114.3383 317.4270 13.20627759810918"}}, "geometry": {"type": "Point", "coordinates": [-26.040586605381787, -8.515359843610849]}}]}